{"fetched_at":"2026-07-21T17:53:29.980Z","source":"https://celestrak.org/NORAD/elements/gp.php?NAME=HAWK&FORMAT=JSON","constellation":"hawkeye-360","records":[{"OBJECT_NAME":"HAWK-12A","OBJECT_ID":"2025-138C","EPOCH":"2026-07-21T05:54:42.084288","CLASSIFICATION_TYPE":"U","MEAN_MOTION":15.18432446,"ECCENTRICITY":0.00145403,"INCLINATION":97.4421,"RA_OF_ASC_NODE":204.4681,"ARG_OF_PERICENTER":26.9293,"MEAN_ANOMALY":333.2692,"EPHEMERIS_TYPE":0,"NORAD_CAT_ID":64623,"ELEMENT_SET_NO":999,"REV_AT_EPOCH":5903,"BSTAR":0.00014631055,"MEAN_MOTION_DOT":0.00002951,"MEAN_MOTION_DDOT":0},{"OBJECT_NAME":"HAWK-13A","OBJECT_ID":"2026-004AF","EPOCH":"2026-07-20T23:34:22.389312","CLASSIFICATION_TYPE":"U","MEAN_MOTION":15.19386774,"ECCENTRICITY":0.00047067,"INCLINATION":97.4451,"RA_OF_ASC_NODE":200.375,"ARG_OF_PERICENTER":195.8236,"MEAN_ANOMALY":164.2853,"EPHEMERIS_TYPE":0,"NORAD_CAT_ID":67392,"ELEMENT_SET_NO":999,"REV_AT_EPOCH":2889,"BSTAR":0.00013767246,"MEAN_MOTION_DOT":0.00002845,"MEAN_MOTION_DDOT":0},{"OBJECT_NAME":"HAWK-13C","OBJECT_ID":"2026-004AG","EPOCH":"2026-07-20T23:34:10.471296","CLASSIFICATION_TYPE":"U","MEAN_MOTION":15.1938316,"ECCENTRICITY":0.0004535,"INCLINATION":97.4599,"RA_OF_ASC_NODE":200.8103,"ARG_OF_PERICENTER":198.9222,"MEAN_ANOMALY":161.1845,"EPHEMERIS_TYPE":0,"NORAD_CAT_ID":67393,"ELEMENT_SET_NO":999,"REV_AT_EPOCH":2889,"BSTAR":0.00013633913,"MEAN_MOTION_DOT":0.00002816,"MEAN_MOTION_DDOT":0},{"OBJECT_NAME":"HAWK-13B","OBJECT_ID":"2026-004AK","EPOCH":"2026-07-21T05:53:22.713792","CLASSIFICATION_TYPE":"U","MEAN_MOTION":15.19387292,"ECCENTRICITY":0.00058277,"INCLINATION":97.454,"RA_OF_ASC_NODE":200.8889,"ARG_OF_PERICENTER":199.9054,"MEAN_ANOMALY":160.1954,"EPHEMERIS_TYPE":0,"NORAD_CAT_ID":67396,"ELEMENT_SET_NO":999,"REV_AT_EPOCH":2893,"BSTAR":0.00014508469,"MEAN_MOTION_DOT":0.00003002,"MEAN_MOTION_DDOT":0},{"OBJECT_NAME":"HAWK-14B","OBJECT_ID":"2026-067W","EPOCH":"2026-07-20T19:49:10.610400","CLASSIFICATION_TYPE":"U","MEAN_MOTION":15.18458233,"ECCENTRICITY":0.00009572,"INCLINATION":97.4566,"RA_OF_ASC_NODE":159.7998,"ARG_OF_PERICENTER":332.7657,"MEAN_ANOMALY":27.3527,"EPHEMERIS_TYPE":0,"NORAD_CAT_ID":68436,"ELEMENT_SET_NO":999,"REV_AT_EPOCH":1704,"BSTAR":0.00014620767,"MEAN_MOTION_DOT":0.00002944,"MEAN_MOTION_DDOT":0},{"OBJECT_NAME":"HAWK-14C","OBJECT_ID":"2026-067AB","EPOCH":"2026-07-20T19:49:20.021088","CLASSIFICATION_TYPE":"U","MEAN_MOTION":15.18456351,"ECCENTRICITY":0.00020038,"INCLINATION":97.4502,"RA_OF_ASC_NODE":159.6754,"ARG_OF_PERICENTER":9.3735,"MEAN_ANOMALY":350.7536,"EPHEMERIS_TYPE":0,"NORAD_CAT_ID":68441,"ELEMENT_SET_NO":999,"REV_AT_EPOCH":1704,"BSTAR":0.00014846399,"MEAN_MOTION_DOT":0.00002991,"MEAN_MOTION_DDOT":0},{"OBJECT_NAME":"HAWK-14A","OBJECT_ID":"2026-067AJ","EPOCH":"2026-07-21T03:43:57.238176","CLASSIFICATION_TYPE":"U","MEAN_MOTION":15.18461929,"ECCENTRICITY":0.00026278,"INCLINATION":97.4628,"RA_OF_ASC_NODE":160.2559,"ARG_OF_PERICENTER":355.6103,"MEAN_ANOMALY":4.5107,"EPHEMERIS_TYPE":0,"NORAD_CAT_ID":68448,"ELEMENT_SET_NO":999,"REV_AT_EPOCH":1709,"BSTAR":0.00015573674,"MEAN_MOTION_DOT":0.00003141,"MEAN_MOTION_DDOT":0}]}
