HAWK-12A                
1 64623U 25138C   26202.24632042  .00002951  00000+0  14631-3 0  9999
2 64623  97.4421 204.4681 0014540  26.9293 333.2692 15.18432446 59033
HAWK-13A                
1 67392U 26004AF  26201.98220358  .00002845  00000+0  13767-3 0  9992
2 67392  97.4451 200.3750 0004706 195.8236 164.2853 15.19386774 28894
HAWK-13C                
1 67393U 26004AG  26201.98206564  .00002816  00000+0  13634-3 0  9997
2 67393  97.4599 200.8103 0004535 198.9222 161.1845 15.19383160 28897
HAWK-13B                
1 67396U 26004AK  26202.24540178  .00003002  00000+0  14508-3 0  9991
2 67396  97.4540 200.8889 0005827 199.9054 160.1954 15.19387292 28931
HAWK-14B                
1 68436U 26067W   26201.82581725  .00002944  00000+0  14621-3 0  9992
2 68436  97.4566 159.7998 0000957 332.7657  27.3527 15.18458233 17046
HAWK-14C                
1 68441U 26067AB  26201.82592617  .00002991  00000+0  14846-3 0  9991
2 68441  97.4502 159.6754 0002003   9.3735 350.7536 15.18456351 17041
HAWK-14A                
1 68448U 26067AJ  26202.15552359  .00003141  00000+0  15574-3 0  9991
2 68448  97.4628 160.2559 0002627 355.6103   4.5107 15.18461929 17096
